[{"OBJECT_NAME":"DELTA 2 R/B(2)","OBJECT_ID":"1992-027C","EPOCH":"2026-04-25T17:00:37.038528","MEAN_MOTION":2.05328431,"ECCENTRICITY":0.64396754,"INCLINATION":22.3647,"RA_OF_ASC_NODE":94.137,"ARG_OF_PERICENTER":46.0108,"MEAN_ANOMALY":351.7057,"EPHEMERIS_TYPE":0,"CLASSIFICATION_TYPE":"U","NORAD_CAT_ID":21966,"ELEMENT_SET_NO":999,"REV_AT_EPOCH":25469,"BSTAR":0,"MEAN_MOTION_DOT":-1.03e-6,"MEAN_MOTION_DDOT":0},{"OBJECT_NAME":"INSAT-2A","OBJECT_ID":"1992-041A","EPOCH":"2026-04-25T21:16:19.724160","MEAN_MOTION":1.00231855,"ECCENTRICITY":0.00094454,"INCLINATION":14.5045,"RA_OF_ASC_NODE":352.2395,"ARG_OF_PERICENTER":291.5698,"MEAN_ANOMALY":60.6887,"EPHEMERIS_TYPE":0,"CLASSIFICATION_TYPE":"U","NORAD_CAT_ID":22027,"ELEMENT_SET_NO":999,"REV_AT_EPOCH":12352,"BSTAR":0,"MEAN_MOTION_DOT":-5.8e-7,"MEAN_MOTION_DDOT":0},{"OBJECT_NAME":"GORIZONT 26","OBJECT_ID":"1992-043A","EPOCH":"2026-04-25T11:42:18.334944","MEAN_MOTION":0.99245435,"ECCENTRICITY":0.00346431,"INCLINATION":13.8604,"RA_OF_ASC_NODE":345.1706,"ARG_OF_PERICENTER":273.4058,"MEAN_ANOMALY":89.5948,"EPHEMERIS_TYPE":0,"CLASSIFICATION_TYPE":"U","NORAD_CAT_ID":22041,"ELEMENT_SET_NO":999,"REV_AT_EPOCH":12295,"BSTAR":0,"MEAN_MOTION_DOT":-2.81e-6,"MEAN_MOTION_DDOT":0},{"OBJECT_NAME":"OPTUS B1 R/B(STAR 63F)","OBJECT_ID":"1992-054C","EPOCH":"2026-04-25T10:08:41.645472","MEAN_MOTION":2.24585859,"ECCENTRICITY":0.72336908,"INCLINATION":22.8687,"RA_OF_ASC_NODE":228.4065,"ARG_OF_PERICENTER":304.0658,"MEAN_ANOMALY":7.2234,"EPHEMERIS_TYPE":0,"CLASSIFICATION_TYPE":"U","NORAD_CAT_ID":22089,"ELEMENT_SET_NO":999,"REV_AT_EPOCH":27177,"BSTAR":0.00062833242,"MEAN_MOTION_DOT":-2.0e-7,"MEAN_MOTION_DDOT":0},{"OBJECT_NAME":"DELTA 2 R/B(2)","OBJECT_ID":"1992-057C","EPOCH":"2026-04-25T19:32:29.681952","MEAN_MOTION":2.17557674,"ECCENTRICITY":0.6753158,"INCLINATION":20.5016,"RA_OF_ASC_NODE":311.9105,"ARG_OF_PERICENTER":109.9973,"MEAN_ANOMALY":324.5156,"EPHEMERIS_TYPE":0,"CLASSIFICATION_TYPE":"U","NORAD_CAT_ID":22098,"ELEMENT_SET_NO":999,"REV_AT_EPOCH":26741,"BSTAR":0,"MEAN_MOTION_DOT":-2.29e-6,"MEAN_MOTION_DDOT":0},{"OBJECT_NAME":"COSMOS 2209","OBJECT_ID":"1992-059A","EPOCH":"2026-04-24T23:43:48.856224","MEAN_MOTION":1.0022409,"ECCENTRICITY":0.00163046,"INCLINATION":13.6234,"RA_OF_ASC_NODE":343.0317,"ARG_OF_PERICENTER":322.4633,"MEAN_ANOMALY":223.8713,"EPHEMERIS_TYPE":0,"CLASSIFICATION_TYPE":"U","NORAD_CAT_ID":22112,"ELEMENT_SET_NO":999,"REV_AT_EPOCH":12308,"BSTAR":0,"MEAN_MOTION_DOT":-2.94e-6,"MEAN_MOTION_DDOT":0},{"OBJECT_NAME":"SL-12 R/B(2)","OBJECT_ID":"1992-059D","EPOCH":"2026-04-25T16:31:07.378176","MEAN_MOTION":0.99788259,"ECCENTRICITY":0.00124235,"INCLINATION":13.8548,"RA_OF_ASC_NODE":343.8634,"ARG_OF_PERICENTER":333.1471,"MEAN_ANOMALY":36.7486,"EPHEMERIS_TYPE":0,"CLASSIFICATION_TYPE":"U","NORAD_CAT_ID":22115,"ELEMENT_SET_NO":999,"REV_AT_EPOCH":12176,"BSTAR":0,"MEAN_MOTION_DOT":-4.4e-7,"MEAN_MOTION_DDOT":0},{"OBJECT_NAME":"HELLAS-SAT 1 (DFS 3)","OBJECT_ID":"1992-066A","EPOCH":"2026-04-24T15:48:16.788960","MEAN_MOTION":0.9972471,"ECCENTRICITY":3.526e-5,"INCLINATION":14.2159,"RA_OF_ASC_NODE":7.4626,"ARG_OF_PERICENTER":81.2973,"MEAN_ANOMALY":93.2873,"EPHEMERIS_TYPE":0,"CLASSIFICATION_TYPE":"U","NORAD_CAT_ID":22175,"ELEMENT_SET_NO":999,"REV_AT_EPOCH":12001,"BSTAR":0,"MEAN_MOTION_DOT":-1.64e-6,"MEAN_MOTION_DDOT":0},{"OBJECT_NAME":"DELTA 2 R/B(2)","OBJECT_ID":"1992-066C","EPOCH":"2026-04-25T13:53:20.767776","MEAN_MOTION":2.18730297,"ECCENTRICITY":0.6843028,"INCLINATION":19.1502,"RA_OF_ASC_NODE":122.1373,"ARG_OF_PERICENTER":184.5556,"MEAN_ANOMALY":156.0895,"EPHEMERIS_TYPE":0,"CLASSIFICATION_TYPE":"U","NORAD_CAT_ID":22177,"ELEMENT_SET_NO":999,"REV_AT_EPOCH":4855,"BSTAR":0,"MEAN_MOTION_DOT":2.0e-7,"MEAN_MOTION_DDOT":0},{"OBJECT_NAME":"MOLNIYA 3-42","OBJECT_ID":"1992-067A","EPOCH":"2026-04-20T22:18:50.920128","MEAN_MOTION":2.20433078,"ECCENTRICITY":0.69662701,"INCLINATION":64.4289,"RA_OF_ASC_NODE":51.9676,"ARG_OF_PERICENTER":247.9829,"MEAN_ANOMALY":28.3013,"EPHEMERIS_TYPE":0,"CLASSIFICATION_TYPE":"U","NORAD_CAT_ID":22178,"ELEMENT_SET_NO":999,"REV_AT_EPOCH":11099,"BSTAR":0,"MEAN_MOTION_DOT":-3.1e-7,"MEAN_MOTION_DDOT":0},{"OBJECT_NAME":"SL-6 R/B(2)","OBJECT_ID":"1992-067D","EPOCH":"2026-04-23T14:31:32.626272","MEAN_MOTION":2.00686652,"ECCENTRICITY":0.68063548,"INCLINATION":64.0986,"RA_OF_ASC_NODE":163.5654,"ARG_OF_PERICENTER":252.84,"MEAN_ANOMALY":27.033,"EPHEMERIS_TYPE":0,"CLASSIFICATION_TYPE":"U","NORAD_CAT_ID":22181,"ELEMENT_SET_NO":999,"REV_AT_EPOCH":24234,"BSTAR":0,"MEAN_MOTION_DOT":-8.93e-6,"MEAN_MOTION_DDOT":0},{"OBJECT_NAME":"SL-6 R/B(2)","OBJECT_ID":"1992-069D","EPOCH":"2026-04-25T22:55:25.447296","MEAN_MOTION":2.02832872,"ECCENTRICITY":0.64820433,"INCLINATION":68.3203,"RA_OF_ASC_NODE":91.5261,"ARG_OF_PERICENTER":354.8121,"MEAN_ANOMALY":1.0913,"EPHEMERIS_TYPE":0,"CLASSIFICATION_TYPE":"U","NORAD_CAT_ID":22192,"ELEMENT_SET_NO":999,"REV_AT_EPOCH":24328,"BSTAR":0,"MEAN_MOTION_DOT":-5.26e-6,"MEAN_MOTION_DDOT":0},{"OBJECT_NAME":"GALAXY 7 (G-7)","OBJECT_ID":"1992-072A","EPOCH":"2026-04-25T11:47:25.631232","MEAN_MOTION":0.99702694,"ECCENTRICITY":0.00074509,"INCLINATION":14.496,"RA_OF_ASC_NODE":3.6822,"ARG_OF_PERICENTER":36.0402,"MEAN_ANOMALY":213.3775,"EPHEMERIS_TYPE":0,"CLASSIFICATION_TYPE":"U","NORAD_CAT_ID":22205,"ELEMENT_SET_NO":999,"REV_AT_EPOCH":11635,"BSTAR":0,"MEAN_MOTION_DOT":7.4e-7,"MEAN_MOTION_DDOT":0},{"OBJECT_NAME":"EKRAN 20","OBJECT_ID":"1992-074A","EPOCH":"2026-04-25T17:16:47.998272","MEAN_MOTION":1.00293681,"ECCENTRICITY":0.00030478,"INCLINATION":13.7198,"RA_OF_ASC_NODE":344.6869,"ARG_OF_PERICENTER":219.1002,"MEAN_ANOMALY":321.3595,"EPHEMERIS_TYPE":0,"CLASSIFICATION_TYPE":"U","NORAD_CAT_ID":22210,"ELEMENT_SET_NO":999,"REV_AT_EPOCH":4684,"BSTAR":0,"MEAN_MOTION_DOT":5.8e-7,"MEAN_MOTION_DDOT":0},{"OBJECT_NAME":"SL-12 R/B(2)","OBJECT_ID":"1992-074D","EPOCH":"2026-04-25T11:39:03.646368","MEAN_MOTION":1.01141257,"ECCENTRICITY":0.00198859,"INCLINATION":13.299,"RA_OF_ASC_NODE":343.1932,"ARG_OF_PERICENTER":147.2164,"MEAN_ANOMALY":205.721,"EPHEMERIS_TYPE":0,"CLASSIFICATION_TYPE":"U","NORAD_CAT_ID":22213,"ELEMENT_SET_NO":999,"REV_AT_EPOCH":12523,"BSTAR":0,"MEAN_MOTION_DOT":-2.44e-6,"MEAN_MOTION_DDOT":0},{"OBJECT_NAME":"SL-6 R/B(2)","OBJECT_ID":"1992-081D","EPOCH":"2026-04-25T15:18:07.059744","MEAN_MOTION":2.03449929,"ECCENTRICITY":0.6375076,"INCLINATION":68.6881,"RA_OF_ASC_NODE":12.1077,"ARG_OF_PERICENTER":17.9275,"MEAN_ANOMALY":356.9382,"EPHEMERIS_TYPE":0,"CLASSIFICATION_TYPE":"U","NORAD_CAT_ID":22241,"ELEMENT_SET_NO":999,"REV_AT_EPOCH":24825,"BSTAR":0,"MEAN_MOTION_DOT":-9.45e-6,"MEAN_MOTION_DDOT":0},{"OBJECT_NAME":"GORIZONT 27","OBJECT_ID":"1992-082A","EPOCH":"2026-04-25T20:29:54.176064","MEAN_MOTION":1.00200624,"ECCENTRICITY":0.00125023,"INCLINATION":13.7477,"RA_OF_ASC_NODE":344.3692,"ARG_OF_PERICENTER":24.3115,"MEAN_ANOMALY":162.0675,"EPHEMERIS_TYPE":0,"CLASSIFICATION_TYPE":"U","NORAD_CAT_ID":22245,"ELEMENT_SET_NO":999,"REV_AT_EPOCH":12659,"BSTAR":0,"MEAN_MOTION_DOT":1.2e-7,"MEAN_MOTION_DDOT":0},{"OBJECT_NAME":"HIMAWARI-3 AKM","OBJECT_ID":"1984-080E","EPOCH":"2026-04-25T21:51:53.812800","MEAN_MOTION":0.99749055,"ECCENTRICITY":0.01379495,"INCLINATION":9.6053,"RA_OF_ASC_NODE":316.4836,"ARG_OF_PERICENTER":110.3413,"MEAN_ANOMALY":50.0495,"EPHEMERIS_TYPE":0,"CLASSIFICATION_TYPE":"U","NORAD_CAT_ID":22266,"ELEMENT_SET_NO":999,"REV_AT_EPOCH":11696,"BSTAR":0,"MEAN_MOTION_DOT":-3.62e-6,"MEAN_MOTION_DDOT":0},{"OBJECT_NAME":"COSMOS 2224","OBJECT_ID":"1992-088A","EPOCH":"2026-04-25T22:03:00.247104","MEAN_MOTION":1.00246497,"ECCENTRICITY":0.00062908,"INCLINATION":13.6638,"RA_OF_ASC_NODE":348.3445,"ARG_OF_PERICENTER":278.1226,"MEAN_ANOMALY":253.785,"EPHEMERIS_TYPE":0,"CLASSIFICATION_TYPE":"U","NORAD_CAT_ID":22269,"ELEMENT_SET_NO":999,"REV_AT_EPOCH":12156,"BSTAR":0,"MEAN_MOTION_DOT":-2.22e-6,"MEAN_MOTION_DDOT":0},{"OBJECT_NAME":"SL-12 R/B(2)","OBJECT_ID":"1992-088D","EPOCH":"2026-04-25T11:41:03.454656","MEAN_MOTION":1.00067211,"ECCENTRICITY":0.00078594,"INCLINATION":13.7652,"RA_OF_ASC_NODE":348.8134,"ARG_OF_PERICENTER":162.576,"MEAN_ANOMALY":191.9587,"EPHEMERIS_TYPE":0,"CLASSIFICATION_TYPE":"U","NORAD_CAT_ID":22272,"ELEMENT_SET_NO":999,"REV_AT_EPOCH":4675,"BSTAR":0,"MEAN_MOTION_DOT":-3.13e-6,"MEAN_MOTION_DDOT":0},{"OBJECT_NAME":"TDRS 6","OBJECT_ID":"1993-003B","EPOCH":"2026-04-25T03:42:58.683168","MEAN_MOTION":1.00274136,"ECCENTRICITY":0.00059115,"INCLINATION":14.1825,"RA_OF_ASC_NODE":357.4542,"ARG_OF_PERICENTER":179.4928,"MEAN_ANOMALY":46.2104,"EPHEMERIS_TYPE":0,"CLASSIFICATION_TYPE":"U","NORAD_CAT_ID":22314,"ELEMENT_SET_NO":999,"REV_AT_EPOCH":12187,"BSTAR":0,"MEAN_MOTION_DOT":-3.08e-6,"MEAN_MOTION_DDOT":0},{"OBJECT_NAME":"IUS R/B(2)","OBJECT_ID":"1993-003D","EPOCH":"2026-04-24T22:08:57.950880","MEAN_MOTION":1.00138914,"ECCENTRICITY":0.0067689,"INCLINATION":11.8905,"RA_OF_ASC_NODE":344.8208,"ARG_OF_PERICENTER":123.672,"MEAN_ANOMALY":63.7915,"EPHEMERIS_TYPE":0,"CLASSIFICATION_TYPE":"U","NORAD_CAT_ID":22316,"ELEMENT_SET_NO":999,"REV_AT_EPOCH":12665,"BSTAR":0,"MEAN_MOTION_DOT":-1.6e-6,"MEAN_MOTION_DDOT":0},{"OBJECT_NAME":"RADUGA 29","OBJECT_ID":"1993-013A","EPOCH":"2026-04-25T14:05:04.642656","MEAN_MOTION":1.00371039,"ECCENTRICITY":0.00030226,"INCLINATION":13.8691,"RA_OF_ASC_NODE":345.5127,"ARG_OF_PERICENTER":186.2241,"MEAN_ANOMALY":352.8214,"EPHEMERIS_TYPE":0,"CLASSIFICATION_TYPE":"U","NORAD_CAT_ID":22557,"ELEMENT_SET_NO":999,"REV_AT_EPOCH":12115,"BSTAR":0,"MEAN_MOTION_DOT":-3.45e-6,"MEAN_MOTION_DDOT":0},{"OBJECT_NAME":"ARSENE (AO-24)","OBJECT_ID":"1993-031B","EPOCH":"2026-04-25T10:52:13.065600","MEAN_MOTION":1.42203113,"ECCENTRICITY":0.28544678,"INCLINATION":5.2005,"RA_OF_ASC_NODE":48.5753,"ARG_OF_PERICENTER":333.3582,"MEAN_ANOMALY":214.7705,"EPHEMERIS_TYPE":0,"CLASSIFICATION_TYPE":"U","NORAD_CAT_ID":22654,"ELEMENT_SET_NO":999,"REV_AT_EPOCH":16667,"BSTAR":0,"MEAN_MOTION_DOT":-1.49e-6,"MEAN_MOTION_DDOT":0}]
